CAS-2T & KS-1Q          
1 41847U 16066G   21043.73086571  .00000057  00000-0  19642-4 0  9998
2 41847  98.6204 102.2376 0364635 232.4782 124.2748 14.38144734223959
NAYIF-1 (EO-88)         
1 42017U 17008BX  21043.66470735  .00001529  00000-0  59547-4 0  9999
2 42017  97.3317 113.4617 0006098 175.9387 184.1903 15.27486157222202
ZHUHAI-1 02 (CAS-4B)    
1 42759U 17034B   21044.14271236  .00000257  00000-0  28859-4 0  9999
2 42759  43.0169 144.4288 0007955 104.1008 325.3983 15.10068218202350
ZHUHAI-1 01 (CAS-4A)    
1 42761U 17034D   21044.14046828  .00000237  00000-0  27653-4 0  9998
2 42761  43.0170 143.5784 0008374 105.9315 323.4980 15.10148871202352
MAX VALIER SAT          
1 42778U 17036P   21043.63511488  .00000770  00000-0  35431-4 0  9995
2 42778  97.2737  96.2446 0010395 253.6970 106.3124 15.23203268202289
RADFXSAT (FOX-1B)       
1 43017U 17073E   21043.75065502  .00000803  00000-0  67527-4 0  9995
2 43017  97.7162 312.6363 0255552 347.4769  12.0168 14.79310522174685
FOX-1D (AO-92)          
1 43137U 18004AC  21043.73153040  .00000954  00000-0  41373-4 0  9994
2 43137  97.4200 119.0010 0007377 294.7302  65.3168 15.24795032171652
DIWATA-2B               
1 43678U 18084H   21044.09197333 -.00000158  00000-0 -99748-5 0  9993
2 43678  97.9058 168.8775 0011390 100.1481 260.1041 14.91703456124897
ES'HAIL 2               
1 43700U 18090A   21043.74190147  .00000129  00000-0  00000-0 0  9997
2 43700   0.0137 109.5906 0001860 254.4999  71.8058  1.00267073  8119
FOX-1CLIFF (AO-95)      
1 43770U 18099N   21044.18055762 -.00000102  00000-0 -40862-5 0  9993
2 43770  97.6795 117.0397 0015886 111.6778 248.6137 14.95192953119889
ITASAT 1                
1 43786U 18099AE  21044.19178910  .00000105  00000-0  14625-4 0  9990
2 43786  97.6810 117.6420 0016570 105.7242 254.5808 14.95503236119913
JY1SAT (JO-97)          
1 43803U 18099AX  21044.17501724 -.00000155  00000-0 -87413-5 0  9994
2 43803  97.6775 117.3947 0016503 105.4990 254.8055 14.95724738119916
UWE-4                   
1 43880U 18111E   21043.70704605  .00000329  00000-0  33785-4 0  9998
2 43880  97.6956 313.5260 0012672 154.4080 205.7771 14.96726337116428
PSAT2 (NO-104)          
1 44354U 19036R   21043.86069633  .00008801  00000-0  11900-3 0  9991
2 44354  28.5273 235.4509 0341283   8.9073 351.7390 15.09409328 90104
BRICSAT2 (NO-103)       
1 44355U 19036S   21043.79107944  .00020548  00000-0  24950-3 0  9993
2 44355  28.5252 208.2919 0298105  53.0664 309.6853 15.20668990 90376
JAISAT-1                
1 44419U 19038F   21043.88818012  .00001001  00000-0  59578-4 0  9999
2 44419  97.5725   9.2096 0021989  25.7970 334.4352 15.13369557 88953
DUCHIFAT-3              
1 44854U 19089C   21044.19891856  .00000485  00000-0  45277-4 0  9996
2 44854  36.9672 115.3564 0007969 221.4005 138.6165 14.99326157 64445
RS-44 & BREEZE-KM R/B   
1 44909U 19096E   21043.77005634 -.00000001  00000-0 -50604-4 0  9995
2 44909  82.5221 195.6386 0217742  24.8976 336.2442 12.79708492 52892
ORBITAL FACTORY 2 (OF-2)
1 45113U 19071C   21043.95051411  .00001155  00000-0  44955-4 0  9991
2 45113  51.6421 280.7426 0012193 200.2721 159.7779 15.34763537 58040
HUSKYSAT-1              
1 45119U 19071J   21044.03219201  .00001053  00000-0  41835-4 0  9991
2 45119  51.6417 279.7864 0011601 197.1106 162.9487 15.34872256 58051
BY70-2                  
1 45857U 20042B   21044.18383607  .00000908  00000-0  13710-3 0  9996
2 45857  97.9943 121.2090 0010008 248.0330 111.9829 14.76681380 33209
SALSAT                  
1 46495U 20068K   21043.93242055 -.00000180  00000-0 -86359-5 0  9991
2 46495  97.6834 342.2571 0018351 127.9398 232.3481 15.03342585 20627
BY70-3                  
1 46839U 20079N   21044.24912528  .00002078  00000-0  68001-4 0  9998
2 46839  97.2540 120.5727 0005691 297.0479 136.5057 15.32794643 15177
OSCAR 7 (AO-7)          
1 07530U 74089B   21043.91017986 -.00000045  00000-0  56311-5 0  9995
2 07530 101.8383  18.6237 0011952 261.7528 112.4056 12.53647320116120
